#dP2025  1 25 12  0  0.00000000      96 __u+U IGS20 EXT  IAC
## 2350 561600.00000000   900.00000000 60700 0.5000000000000
+   53   G01G02G03G04G05G06G07G08G09G10G11G12G13G14G15G16G17
+        G18G19G20G21G22G23G24G25G26G27G28G29G30G31G32R01R02
+        R03R04R05R06R07R08R09R11R12R14R15R16R17R18R19R20R21
+        R22R24  0  0  0  0  0  0  0  0  0  0  0  0  0  0  0
+          0  0  0  0  0  0  0  0  0  0  0  0  0  0  0  0  0
++         9  7  7  8  8  8  7  7  8  7  7  7  7  7  7  6  8
++         7  8  8  7  8  7  8  8  7  6  7  6  6  7  8  7  8
++         9 10  7  0  9  9  7  8  7  8  7  5  6  9 10  9  7
++         8  8  0  0  0  0  0  0  0  0  0  0  0  0  0  0  0
++         0  0  0  0  0  0  0  0  0  0  0  0  0  0  0  0  0
%c M  cc GPS ccc cccc cccc cccc cccc ccccc ccccc ccccc ccccc
%c cc cc ccc ccc cccc cccc cccc cccc ccccc ccccc ccccc ccccc
%f  0.0000000  0.000000000  0.00000000000  0.000000000000000
%f  0.0000000  0.000000000  0.00000000000  0.000000000000000
%i    0    0    0    0      0      0      0      0         0
%i    0    0    0    0      0      0      0      0         0
/* IAC                                ULTRA-RAPID PREDICTION
/* S/V CLOCKS ARE ALIGNED TO GNSS TIME                      
/* G:C1WC2W R:C1PC2P E:C1XC5X C:C2IC6I J:C1CC2S             
/* PCV:IGS20_2317 OL/AL:FES2004  NONE     YN ORB:CoN CLK:CoN
*  2025 01 25 21  0  0.00000000
PG01  14528.157980 -10640.496568  19526.569345     76.404417
PG02  14036.564543  -8374.513333  21319.582767   -259.027704
PG03  23391.771957 -12352.840090   1344.703806    652.687440
PG04  17922.649326  -4388.372619 -19140.254908    517.497061
PG05 -22072.220831   2296.698219 -14818.127630   -200.080834
PG06  -6229.257764 -23694.496852 -10025.991044   -143.718316
PG07   6891.832766 -23252.811563  -9745.157867    -13.378417
PG08  24116.141418   3854.491275  10849.702857    468.109899
PG09   9324.331590 -12232.266981 -21749.330844    542.772493
PG10   1307.824900  15676.698132  21577.065263   -291.971798
PG11 -12169.685640 -14648.647093 -18496.535428   -750.477577
PG12 -24529.370979   9439.490457   3374.101836   -566.547280
PG13 -22495.926939 -13428.270022   4863.256645    694.585202
PG14   2642.044064 -17694.720511  19603.392433    586.753830
PG15 -24105.427321   -671.942261  10765.730435    255.899478
PG16  19560.821537   4674.997539 -17931.398714    -68.920799
PG17  -5652.124507 -18779.035439  18218.289052    457.260236
PG18  -5966.465685  24409.636247  -8210.225896   -656.397679
PG19 -15256.908722 -19532.938360   9991.091819    590.491589
PG20 -14337.894083  -7255.131658 -21038.844678    366.795768
PG21  15464.290938    186.336176  21991.533282    101.603830
PG22  -4823.950388 -14739.338396  21958.039193    -94.099887
PG23 -13090.418281  18643.936041  13503.971251    410.985636
PG24 -14720.630735   6253.997132  20685.588540   -459.919229
PG25 -18159.461939  17662.023880  -7877.185626    496.156659
PG26  11266.190958  11537.269519 -21317.578387    -63.221471
PG27  23502.352432  12866.935637    367.178400    -32.537673
PG28   6403.338288  24509.253806  -7996.059370   -544.364236
PG29 -10237.776858  11217.868762 -21843.274179   -543.825971
PG30  -1013.729236 -26373.890664   1154.962285   -231.015200
PG31  10794.380346  18487.777957 -15733.282780   -217.047315
PG32  11755.814162  18662.015936  15180.192857   -534.709707
PR01 -18041.317782  -9760.797110 -15164.396395    112.481788
PR02 -25123.855804  -4039.316589   1157.693283    -38.127901
PR03 -18156.863112   5034.660254  17212.382159    115.604923
PR04  -1677.787398  10538.972217  23201.630775    274.184378
PR05  15760.716644  10835.144852  16907.049143    144.351409
PR06      0.000000      0.000000      0.000000   -131.723729
PR07  18056.220896  -5057.266756 -17276.483679     99.556682
PR08   1337.007024 -10674.289947 -23063.342548     -6.334961
PR09  15551.888738  -4114.966597 -19752.426171    234.202447
PR11  11207.743742 -20890.135362   9397.729635     -3.621489
PR12  -3885.755289 -12049.417542  22162.567494     50.030405
PR14 -17772.881925  17194.104757   6302.268946     27.645727
PR15 -10104.137762  20667.629430 -11015.291208     71.824351
PR16   3666.446164  12074.532746 -22172.074209     32.738382
PR17  -6983.315931  10554.157077 -22128.958523    160.649650
PR18   2025.860528  22410.414395 -12047.535887    183.751493
PR19   8570.182876  23917.811220   2286.091987   -306.826690
PR20  12422.904146   9493.811567  20182.192254   -124.983530
PR21   7622.128328  -9225.112508  22533.618979   -171.242728
PR22  -2040.144520 -22976.784636  10902.699276    -57.680234
PR24 -13208.763635  -8218.095479 -20198.198577    -89.691205
*  2025 01 25 21 15  0.00000000
PG01  14527.464325  -8342.243547  20614.906873     76.429518
PG02  14384.865203  -6017.952964  21922.814580   -259.019371
PG03  23201.868314 -12016.812075   4236.994722    652.693228
PG04  19679.782190  -3233.573435 -17596.661817    517.502194
PG05 -20693.644235   1167.242564 -16821.405899   -200.081756
PG06  -6076.877307 -24700.518965  -7341.729923   -143.741792
PG07   7228.040986 -21918.553620 -12197.493783    -13.378494
PG08  25011.431734   4538.896177   8334.988694    468.116492
PG09  11495.209309 -11109.973013 -21312.270482    542.785511
PG10   -739.837368  16867.157226  20648.062959   -291.985961
PG11 -12009.974723 -16672.045691 -16820.472840   -750.476232
PG12 -24139.204661   8940.207154   6161.975604   -566.549205
PG13 -22714.229977 -13836.555876   2032.434579    694.586213
PG14   4584.074822 -18675.598243  18265.863835    586.760111
PG15 -25105.973992  -1316.581330   8260.220579    255.903516
PG16  17777.585433   5704.338230 -19417.720504    -68.912430
PG17  -3796.163811 -17792.302217  19682.806461    457.244028
PG18  -6197.103538  23315.770984 -10817.525123   -656.396170
PG19 -14086.503490 -18967.228775  12425.574088    590.495590
PG20 -12557.802251  -8949.559220 -21527.736426    366.795495
PG21  15794.266842   2577.776504  21697.603784    101.604075
PG22  -2667.096509 -15811.758508  21597.505970    -94.101547
PG23 -14358.039997  19274.598598  11087.761545    410.992281
PG24 -15119.148552   3786.871445  21023.138932   -459.915302
PG25 -18913.869094  17807.597429  -5163.602171    496.156060
PG26   9334.951845  12986.670124 -21382.500514    -63.235769
PG27  23323.402059  13029.183567  -2455.680776    -32.537211
PG28   6212.285519  25281.432197  -5275.318024   -544.372506
PG29 -12304.383877   9878.622455 -21429.484799   -543.822862
PG30   -663.518829 -26341.609011  -1665.015711   -231.007498
PG31  10599.531426  20146.344220 -13625.552668   -217.046528
PG32  10089.001438  17965.424907  17108.354852   -534.703071
PR01 -16052.007614  -9438.485677 -17433.121958    112.482934
PR02 -25087.033003  -3859.502680  -2072.507242    -38.127581
PR03 -20129.425484   4883.975832  14894.250467    115.605606
PR04  -4493.245036  10129.414327  23007.080368    274.185996
PR05  13593.648491  10384.377730  18947.466923    144.351829
PR06      0.000000      0.000000      0.000000   -131.731228
PR07  20051.612572  -4903.445023 -14977.426580     99.557381
PR08   4164.814597 -10290.490040 -22903.626216     -6.334938
PR09  14047.041296  -2083.645419 -21155.024556    234.204575
PR11  11689.229631 -21746.737050   6381.324675     -3.624319
PR12  -2299.847642 -14190.468800  21090.870433     50.030788
PR14 -17107.348885  16491.364716   9306.011453     27.645761
PR15 -10731.528699  21674.831799  -8105.210777     71.824003
PR16   2090.198156  14228.217888 -21075.034507     32.738540
PR17  -7981.478113   7956.905101 -22867.942661    160.652537
PR18   1586.208622  20808.196575 -14688.509129    183.753168
PR19   8801.433142  23923.431874   -956.386277   -306.827905
PR20  13320.468400  11699.838137  18372.825280   -124.983536
PR21   8613.840236  -6588.157163  23092.906903   -171.245607
PR22  -1641.123656 -21516.394144  13619.816522    -57.681790
PR24 -14180.174285 -10402.807586 -18460.537076    -89.692595
EOF
